P/2016 P5 (COIAS),e,7.0389,185.3642,33.6802,4.699416,0.0967472,0.05744941,94.2724,01/19.0/2026,2000,g 13.2,4.0
# From MPEC 2024-H50
C/2016 Q2 (PANSTARRS),h,05/11.0544/2021,109.3121,322.3534,84.5157,1.001760,7.080074,2000,6.0,4.0
# From MPEC 2023-J95
C/2016 Q4 (Kowalski),e,7.2365,271.2778,100.0291,17.04886,0.0140011,0.58202938,40.7404,01/19.0/2026,2000,g  7.0,4.0
# From MPEC 2021-N06
C/2016 R2 (PANSTARRS),e,58.3803,80.4715,33.1775,576.6306,0.0000712,0.99550030,0.0000,05/11.9920/2018,2000,g  7.0,4.0
# From MPEC 2022-K19
P/2016 R4 (Gibbs),e,10.8608,168.2560,174.0686,5.339615,0.0798802,0.47448478,277.2742,01/19.0/2026,2000,g 12.5,4.0
# From MPEC 2021-P47
C/2016 X1 (Lemmon),e,26.4665,256.3073,224.6581,3528,0.0000047,0.99785562,0.0000,05/01.6439/2019,2000,g  6.0,4.0
# From MPC114598
C/2017 AB5 (PANSTARRS),h,02/19.7733/2018,32.4426,42.6222,78.3969,1.000414,9.211786,2000,5.5,4.0
# From MPEC 2022-OB6
C/2017 B3 (LINEAR),e,54.2479,2.2786,284.7120,2751,0.0000068,0.99857119,0.0000,01/29.7997/2019,2000,g  6.0,4.0
# From MPC103847
P/2017 B4 (PANSTARRS),e,20.0584,121.4578,11.0197,4.410520,0.1064068,0.36495152,359.9130,01/05.0/2017,2000,g 14.5,4.0
# From MPEC 2022-OB6
P/2017 D1 (Fuls),e,20.7715,82.1854,8.1330,4.820262,0.0931318,0.43778404,324.8817,01/19.0/2026,2000,g 14.0,4.0
# From MPEC 2022-O08
C/2017 E3 (PANSTARRS),h,06/06.7607/2017,70.6668,220.7633,334.1513,1.004247,5.900847,2000,6.5,4.0
# From MPC114598
C/2017 F2 (PANSTARRS),h,11/26.5413/2017,42.5400,38.6176,134.7846,1.001860,6.899999,2000,7.5,4.0
# From MPC184408
P/2017 FL36 (PANSTARRS),e,15.6877,313.4427,90.5590,2.928140,0.1967054,0.03315602,31.8117,01/19.0/2026,2000,g 14.7,4.0
# From MPC115882
C/2017 K1 (PANSTARRS),e,154.0258,225.6499,4.1481,14646,0.0000006,0.99950402,0.0000,03/12.6089/2018,2000,g  7.0,4.0
# From MPEC 2026-A90
C/2017 K2 (PANSTARRS),e,87.6390,88.2216,236.1533,1253,0.0000222,0.99856334,0.0000,12/18.0956/2022,2000,g  1.5,4.0
# From MPEC 2021-P47
C/2017 K5 (PANSTARRS),h,03/24.8272/2020,82.2800,102.4608,171.8854,1.002446,7.672578,2000,5.0,4.0
# From MPEC 2022-OB6
C/2017 M4 (ATLAS),e,105.6374,65.9907,167.3596,47243,0.0000001,0.99993158,0.0000,01/17.4245/2019,2000,g  6.0,4.0
# From MPC118841
C/2017 M5 (TOTAS),h,05/30.8438/2018,15.8699,216.3093,92.7853,1.002066,6.009248,2000,6.5,4.0
# From MPC114599
P/2017 P1 (PANSTARRS),e,7.6880,221.4702,122.6986,7.919767,0.0442217,0.30856449,122.6656,01/19.0/2026,2000,g 10.0,4.0
# From MPEC 2020-SI8
C/2017 S7 (Lemmon),e,124.2295,262.6509,187.7499,63498,0.0000001,0.99987966,0.0000,05/25.5720/2017,2000,g  7.0,4.0
# From MPEC 2022-OB6
P/2017 S8 (PANSTARRS),e,29.8417,191.4949,254.9496,2.778376,0.2128224,0.39114778,259.8535,01/19.0/2026,2000,g 16.0,4.0
# From MPEC 2024-A43
C/2017 T2 (PANSTARRS),e,57.2682,64.4085,92.7741,1701,0.0000140,0.99905853,0.0000,05/06.5461/2020,2000,g  5.0,4.0
# From MPC115882
P/2017 TW13 (Lemmon),e,44.8913,322.0905,120.0595,7.139043,0.0516707,0.71047045,142.9256,01/19.0/2026,2000,g 15.0,2.0
# From MPEC 2022-K19
P/2017 U3 (PANSTARRS),e,15.9255,165.0481,296.5979,4.918613,0.0903525,0.10093742,222.8453,01/19.0/2026,2000,g 11.0,4.0
# From MPEC 2023-CD7
C/2017 U4 (PANSTARRS),e,158.2031,245.9294,159.2300,11484,0.0000008,0.99932485,0.0000,09/22.4016/2018,2000,g  7.0,4.0
# From MPEC 2023-A50
C/2017 U7 (PANSTARRS),h,09/16.1376/2019,142.6397,276.3213,326.3699,1.002545,6.413735,2000,8.3,2.0
# From MPC114601
P/2017 W3 (Gibbs),e,18.1963,210.0325,327.7889,7.816653,0.0450996,0.50737730,129.9991,01/19.0/2026,2000,g 10.5,4.0
# From MPEC 2024-JU4
C/2018 A6 (Gibbs),e,77.1875,340.4850,264.2371,14.99173,0.0169796,0.79892780,40.4877,01/19.0/2026,2000,g  9.0,4.0
# From MPC114602
P/2018 H2 (PANSTARRS),e,7.4110,67.9861,119.0434,4.415721,0.1062189,0.53976179,315.0614,01/19.0/2026,2000,g 16.6,2.0
# From MPEC 2021-R75
C/2018 KJ3 (Lemmon),e,136.6215,91.6948,217.5049,644.3021,0.0000603,0.99438675,0.0000,09/07.9927/2019,2000,g 12.2,2.0
# From MPEC 2022-YN2
C/2018 N2 (ASASSN),h,11/12.0627/2019,77.4576,24.5478,25.3392,1.002094,3.137214,2000,6.0,4.0
# From MPC114603
P/2018 P4 (PANSTARRS),e,23.0687,353.1619,8.5098,6.697493,0.0568638,0.44858215,149.6449,01/19.0/2026,2000,g 12.0,4.0
# From MPEC 2022-QC6
C/2018 S2 (TESS),e,64.1131,85.1111,290.9812,14.36833,0.0180965,0.61744451,47.6420,01/19.0/2026,2000,g  7.5,4.0
# From MPEC 2023-D54
C/2018 S3 (TESS),e,78.3895,25.0494,263.9004,26401,0.0000002,0.99969631,0.0000,06/24.2174/2016,2000,g  6.0,4.0
# From MPC184408
C/2018 U1 (Lemmon),e,108.3267,75.5060,180.3062,13598,0.0000006,0.99963354,0.0000,11/01.7428/2021,2000,g  5.0,4.0
# From MPC181178
P/2018 VN2 (Leonard),e,18.2553,226.4321,138.9297,4.060622,0.1204523,0.47802740,334.8528,01/19.0/2026,2000,g 15.0,4.0
# From MPEC 2023-M14
A/2018 W3,e,104.8325,251.6771,313.8194,684.7422,0.0000550,0.99375202,0.0000,04/13.1976/2021,2000,g 10.5,2.0
# From MPC114605
P/2018 Y2 (Africano),e,11.6971,297.1084,162.4406,7.459666,0.0483754,0.47993838,124.3639,01/19.0/2026,2000,g 11.5,4.0
# From MPEC 2021-P47
P/2019 A2 (ATLAS),e,14.8771,139.3567,324.0013,5.710231,0.0722310,0.38333334,188.6393,01/19.0/2026,2000,g 10.5,4.0
# From MPEC 2022-M21
P/2019 A3 (PANSTARRS),e,15.3567,31.1779,325.5564,3.143255,0.1768621,0.26822208,121.5673,01/19.0/2026,2000,g 16.0,4.0
# From MPEC 2022-L66
P/2019 A4 (PANSTARRS),e,13.3064,119.3541,343.3405,2.614099,0.2331960,0.08750663,244.9918,01/19.0/2026,2000,g 15.0,4.0
# From MPEC 2021-P47
C/2019 A5 (PANSTARRS),e,67.5550,146.4907,355.8790,21.52856,0.0098669,0.70664271,23.8528,01/19.0/2026,2000,g  9.5,4.0
# From MPC115885
P/2019 B2 (Groeller),e,16.9467,175.5934,0.4802,3.932945,0.1263651,0.35772051,309.3483,01/19.0/2026,2000,g 14.5,4.0
# From MPEC 2024-JU4
C/2019 B3 (PANSTARRS),e,66.6257,358.3975,263.9988,3162,0.0000055,0.99783980,0.0000,01/19.3143/2021,2000,g  5.5,4.0
# From MPEC 2026-A90
C/2019 E3 (ATLAS),e,84.3248,347.1828,280.7245,6369,0.0000019,0.99838069,0.0000,11/15.7813/2023,2000,g  2.5,4.0
# From MPEC 2024-GJ3
C/2019 F1 (ATLAS-Africano),e,54.2747,38.6668,251.2731,45925,0.0000001,0.99992145,0.0000,06/20.7892/2021,2000,g  5.5,4.0
# From MPC114607
P/2019 GG21 (PANSTARRS),e,6.0806,340.5659,208.5881,7.468484,0.0482898,0.47170666,118.1270,01/19.0/2026,2000,g 12.0,4.0
# From MPEC 2024-GJ3
C/2019 K7 (Smith),e,103.4647,308.0479,27.3216,54213,0.0000001,0.99991751,0.0000,06/16.6756/2020,2000,g  6.0,4.0
# From MPEC 2025-W75
P/2019 LD2 (ATLAS),e,11.6697,178.0409,116.0909,5.153188,0.0842539,0.13437610,184.2594,01/19.0/2026,2000,g 12.0,4.0
# From MPC185656
C/2019 L3 (ATLAS),h,01/10.2155/2022,48.3470,290.7098,171.7963,1.003410,3.561430,2000,4.5,4.0
# From MPEC 2025-W75
P/2019 LM4 (Palomar),e,36.4121,72.8744,68.2266,5.701162,0.0724034,0.58643844,174.0540,01/19.0/2026,2000,g 12.9,4.0
# From MPEC 2023-JA2
C/2019 M4 (TESS),e,65.7053,52.6358,260.3222,27249,0.0000002,0.99966272,0.0000,09/08.6648/2019,2000,g  5.0,4.0
# From MPEC 2023-C45
C/2019 N1 (ATLAS),e,82.5808,13.4878,193.3399,942.3741,0.0000341,0.99819307,0.0000,11/30.4256/2020,2000,g  7.5,4.0
# From MPEC 2023-CD8
A/2019 N2,e,89.3206,276.2247,347.0235,1038,0.0000295,0.99813352,0.0000,08/22.3117/2019,2000,g 12.5,2.0
# From MPEC 2025-W75
C/2019 NJ3 (Lemmon),h,10/22.0226/2020,99.3118,142.4922,246.8774,1.001737,4.362168,2000,12.0,4.0
# From MPC185656
C/2019 O2 (PANSTARRS),e,93.2874,48.2656,129.5642,58.83663,0.0021839,0.83547343,2.2256,01/19.0/2026,2000,g  5.0,4.0
# From MPC182878
C/2019 O3 (Palomar),h,03/07.6115/2021,89.7911,300.4828,60.0794,1.001890,8.820220,2000,3.5,4.0
# From MPEC 2024-EF7
C/2019 Q1 (Lemmon),h,07/22.4970/2020,155.7121,42.4744,56.2410,1.002518,4.999845,2000,8.5,4.0
# From MPC117072
C/2019 Q3 (PANSTARRS),h,08/19.1096/2018,65.5879,151.4607,152.6740,1.000717,7.263979,2000,8.5,4.0
# From MPC117072
P/2019 S2 (PANSTARRS),e,10.4636,93.1793,216.8600,4.748192,0.0952602,0.20470762,241.0532,01/19.0/2026,2000,g 13.5,4.0
# From MPEC 2022-CN4
P/2019 S3 (PANSTARRS),e,8.6945,150.1402,213.1026,3.413520,0.1562789,0.47061380,4.8159,01/19.0/2026,2000,g 18.3,4.0
# From MPEC 2023-N01
A/2019 T1,e,120.7991,6.9192,90.9507,38.67817,0.0040974,0.88951932,7.4993,01/19.0/2026,2000,g 13.0,2.0
# From MPEC 2023-R20
C/2019 T2 (Lemmon),e,111.3432,155.6514,239.3679,2732,0.0000069,0.99903265,0.0000,04/22.2569/2021,2000,g  9.0,4.0
# From MPEC 2023-UR6
C/2019 T3 (ATLAS),e,121.8868,139.5500,112.4923,5839,0.0000022,0.99898045,0.0000,03/05.0128/2021,2000,g  6.8,4.0
# From MPC188408
C/2019 T4 (ATLAS),e,53.6246,199.8794,351.1140,894.6324,0.0000368,0.99526438,0.0000,06/08.7487/2022,2000,g  5.0,4.0
# From MPC118096
P/2019 U4 (PANSTARRS),e,11.6957,199.9946,181.0983,3.517965,0.1493712,0.47562369,345.1292,01/19.0/2026,2000,g 19.0,4.0
# From MPEC 2026-A90
C/2019 U5 (PANSTARRS),e,113.5148,2.5971,181.4458,90565,0.0000000,0.99995997,0.0000,03/29.3044/2023,2000,g  4.5,4.0
# From MPEC 2022-L66
P/2019 V2 (Groeller),e,11.8076,189.1170,335.6606,7.495256,0.0480313,0.33211323,92.1778,01/19.0/2026,2000,g 10.0,4.0
# From MPEC 2023-A50
P/2019 W1 (PANSTARRS),e,23.4634,35.3498,18.9230,4.548428,0.1016043,0.26707067,248.2660,01/19.0/2026,2000,g 12.9,4.0
# From MPEC 2021-P47
P/2019 X1 (Pruyne),e,10.2428,43.6718,37.0491,6.181181,0.0641353,0.30361337,152.0012,01/19.0/2026,2000,g 10.4,4.0
# From MPEC 2020-C98
P/2019 X2 (Pan-STARRS),e,15.8950,250.8234,213.5502,3.633177,0.1423227,0.50050941,317.2589,01/19.0/2026,2000,g 18.0,4.0
# From MPEC 2023-A50
C/2020 A3 (ATLAS),e,146.6145,120.7958,268.2192,3448,0.0000049,0.99833105,0.0000,06/26.0095/2019,2000,g  8.0,4.0
# From MPEC 2023-KD6
P/2020 B4 (Sheppard),e,11.6016,185.9330,342.1332,7.976256,0.0437528,0.19317121,66.5205,01/19.0/2026,2000,g 10.5,4.0
# From MPEC 2025-X35
C/2020 F2 (ATLAS),h,07/12.0271/2022,163.5900,250.2952,48.2238,1.001699,8.813939,2000,4.5,4.0
# From MPEC 2024-UQ8
C/2020 F5 (MASTER),e,52.2426,350.5636,310.5742,162.2337,0.0004770,0.97334394,0.0000,03/15.8832/2021,2000,g  6.5,3.2
# From MPEC 2024-A43
C/2020 F7 (Lemmon),e,93.9934,321.8129,228.0067,590.8951,0.0000686,0.99096909,0.0000,11/14.1395/2021,2000,g  7.0,4.0
# From MPC184409
